WORLDVIEW-1 (WV-1)      
1 32060U 07041A   26189.49457280  .00004218  00000+0  17446-3 0  9997
2 32060  97.3891 308.9377 0000988 249.1292 110.9840 15.24509060 46129
WORLDVIEW-2 (WV-2)      
1 35946U 09055A   26189.45708997  .00000057  00000+0  33246-4 0  9994
2 35946  98.4759 262.6168 0005013 146.4068 213.7438 14.37905683878704
WORLDVIEW-3 (WV-3)      
1 40115U 14048A   26189.52668524  .00000641  00000+0  81264-4 0  9997
2 40115  97.8558 264.0645 0000773 165.3527 194.7710 14.85057491645073
