{"fetched_at":"2026-07-08T18:00:59.547Z","source":"https://celestrak.org/NORAD/elements/gp.php?NAME=WORLDVIEW&FORMAT=JSON","constellation":"worldview","records":[{"OBJECT_NAME":"WORLDVIEW-1 (WV-1)","OBJECT_ID":"2007-041A","EPOCH":"2026-07-08T11:52:11.089920","CLASSIFICATION_TYPE":"U","MEAN_MOTION":15.2450906,"ECCENTRICITY":0.0000988,"INCLINATION":97.3891,"RA_OF_ASC_NODE":308.9377,"ARG_OF_PERICENTER":249.1292,"MEAN_ANOMALY":110.984,"EPHEMERIS_TYPE":0,"NORAD_CAT_ID":32060,"ELEMENT_SET_NO":999,"REV_AT_EPOCH":4612,"BSTAR":0.00017446,"MEAN_MOTION_DOT":0.00004218,"MEAN_MOTION_DDOT":0},{"OBJECT_NAME":"WORLDVIEW-2 (WV-2)","OBJECT_ID":"2009-055A","EPOCH":"2026-07-08T10:58:12.573408","CLASSIFICATION_TYPE":"U","MEAN_MOTION":14.37905683,"ECCENTRICITY":0.0005013,"INCLINATION":98.4759,"RA_OF_ASC_NODE":262.6168,"ARG_OF_PERICENTER":146.4068,"MEAN_ANOMALY":213.7438,"EPHEMERIS_TYPE":0,"NORAD_CAT_ID":35946,"ELEMENT_SET_NO":999,"REV_AT_EPOCH":87870,"BSTAR":0.000033246,"MEAN_MOTION_DOT":5.7e-7,"MEAN_MOTION_DDOT":0},{"OBJECT_NAME":"WORLDVIEW-3 (WV-3)","OBJECT_ID":"2014-048A","EPOCH":"2026-07-08T12:38:25.604736","CLASSIFICATION_TYPE":"U","MEAN_MOTION":14.85057491,"ECCENTRICITY":0.0000773,"INCLINATION":97.8558,"RA_OF_ASC_NODE":264.0645,"ARG_OF_PERICENTER":165.3527,"MEAN_ANOMALY":194.771,"EPHEMERIS_TYPE":0,"NORAD_CAT_ID":40115,"ELEMENT_SET_NO":999,"REV_AT_EPOCH":64507,"BSTAR":0.000081264,"MEAN_MOTION_DOT":0.00000641,"MEAN_MOTION_DDOT":0}]}
